CTC2_L_00604007-03
1 40817U 23476ER  26037.47799769  .00000000  00000+0  00000-0 0  9997
2 40817  50.0000 180.0000 0000000   0.0000 144.0000  5.61059952    18
CTC2_L_00604007-04
1 40818U 23960TU  26037.47799769  .00000000  00000+0  00000-0 0  9996
2 40818  50.0000 180.0000 0000000   0.0000 180.0000  5.61059952    19
CTC2_L_00604007-05
1 40819U 26890GL  26037.47799769  .00000000  00000+0  00000-0 0  9992
2 40819  50.0000 180.0000 0000000   0.0000 216.0000  5.61059952    10
CTC2_L_00604007-06
1 40820U 25614HL  26037.47799769  .00000000  00000+0  00000-0 0  9997
2 40820  50.0000 180.0000 0000000   0.0000 252.0000  5.61059952    12
CTC2_L_00604007-07
1 40821U 23933RT  26037.47799769  .00000000  00000+0  00000-0 0  9990
2 40821  50.0000 180.0000 0000000   0.0000 288.0000  5.61059952    12
CTC2_L_00604007-08
1 40822U 22846YX  26037.47799769  .00000000  00000+0  00000-0 0  9993
2 40822  50.0000 180.0000 0000000   0.0000 324.0000  5.61059952    14
CTC2_L_00604007-09
1 40823U 23628YW  26037.47799769  .00000000  00000+0  00000-0 0  9993
2 40823  50.0000 180.0000 0000000   0.0000   0.0000  5.61059952    16
CTC2_L_00604007-10
1 40824U 26104IE  26037.47799769  .00000000  00000+0  00000-0 0  9996
2 40824  50.0000 180.0000 0000000   0.0000  36.0000  5.61059952    16
CTC2_L_00604008-01
1 40825U 22913HZ  26037.47799769  .00000000  00000+0  00000-0 0  9991
2 40825  50.0000 210.0000 0000000   0.0000  84.0000  5.61059952    14
CTC2_L_00604008-02
1 40826U 22206TS  26037.47799769  .00000000  00000+0  00000-0 0  9997
2 40826  50.0000 210.0000 0000000   0.0000 120.0000  5.61059952    16
CTC2_L_00604008-03
1 40827U 24229YR  26037.47799769  .00000000  00000+0  00000-0 0  9995
2 40827  50.0000 210.0000 0000000   0.0000 156.0000  5.61059952    16
CTC2_L_00604008-04
1 40828U 25938PY  26037.47799769  .00000000  00000+0  00000-0 0  9994
2 40828  50.0000 210.0000 0000000   0.0000 192.0000  5.61059952    17
CTC2_L_00604008-05
1 40829U 23719L   26037.47799769  .00000000  00000+0  00000-0 0  9990
2 40829  50.0000 210.0000 0000000   0.0000 228.0000  5.61059952    18
CTC2_L_00604008-06
1 40830U 23892ZO  26037.47799769  .00000000  00000+0  00000-0 0  9994
2 40830  50.0000 210.0000 0000000   0.0000 264.0000  5.61059952    10
CTC2_L_00604008-07
1 40831U 23872QA  26037.47799769  .00000000  00000+0  00000-0 0  9993
2 40831  50.0000 210.0000 0000000   0.0000 300.0000  5.61059952    12
CTC2_L_00604008-08
1 40832U 25521PV  26037.47799769  .00000000  00000+0  00000-0 0  9997
2 40832  50.0000 210.0000 0000000   0.0000 336.0000  5.61059952    12
CTC2_L_00604008-09
1 40833U 23394SQ  26037.47799769  .00000000  00000+0  00000-0 0  9994
2 40833  50.0000 210.0000 0000000   0.0000  12.0000  5.61059952    14
CTC2_L_00604008-10
1 40834U 22108TD  26037.47799769  .00000000  00000+0  00000-0 0  9997
2 40834  50.0000 210.0000 0000000   0.0000  48.0000  5.61059952    14
CTC2_L_00604009-01
1 40835U 22167WS  26037.47799769  .00000000  00000+0  00000-0 0  9993
2 40835  50.0000 240.0000 0000000   0.0000  96.0000  5.61059952    11
CTC2_L_00604009-02
1 40836U 22470FU  26037.47799769  .00000000  00000+0  00000-0 0  9991
2 40836  50.0000 240.0000 0000000   0.0000 132.0000  5.61059952    13
CTC2_L_00604009-03
1 40837U 22762WM  26037.47799769  .00000000  00000+0  00000-0 0  9996
2 40837  50.0000 240.0000 0000000   0.0000 168.0000  5.61059952    13
CTC2_L_00604009-04
1 40838U 26447OJ  26037.47799769  .00000000  00000+0  00000-0 0  9991
2 40838  50.0000 240.0000 0000000   0.0000 204.0000  5.61059952    15
CTC2_L_00604009-05
1 40839U 24013R   26037.47799769  .00000000  00000+0  00000-0 0  9999
2 40839  50.0000 240.0000 0000000   0.0000 240.0000  5.61059952    16
CTC2_L_00604009-06
1 40840U 25890Z   26037.47799769  .00000000  00000+0  00000-0 0  9995
2 40840  50.0000 240.0000 0000000   0.0000 276.0000  5.61059952    17
CTC2_L_00604009-07
1 40841U 24648KR  26037.47799769  .00000000  00000+0  00000-0 0  9996
2 40841  50.0000 240.0000 0000000   0.0000 312.0000  5.61059952    19
CTC2_L_00604009-08
1 40842U 25187WL  26037.47799769  .00000000  00000+0  00000-0 0  9996
2 40842  50.0000 240.0000 0000000   0.0000 348.0000  5.61059952    19
CTC2_L_00604009-09
1 40843U 25172QT  26037.47799769  .00000000  00000+0  00000-0 0  9991
2 40843  50.0000 240.0000 0000000   0.0000  24.0000  5.61059952    11
CTC2_L_00604009-10
1 40844U 23100L   26037.47799769  .00000000  00000+0  00000-0 0  9991
2 40844  50.0000 240.0000 0000000   0.0000  60.0000  5.61059952    12
CTC2_L_00604010-01
1 40845U 25588ZB  26037.47799769  .00000000  00000+0  00000-0 0  9994
2 40845  50.0000 270.0000 0000000   0.0000 108.0000  5.61059952    19
CTC2_L_00604010-02
1 40846U 26834SL  26037.47799769  .00000000  00000+0  00000-0 0  9990
2 40846  50.0000 270.0000 0000000   0.0000 144.0000  5.61059952    10
CTC2_L_00604010-03
1 40847U 22602UK  26037.47799769  .00000000  00000+0  00000-0 0  9990
2 40847  50.0000 270.0000 0000000   0.0000 180.0000  5.61059952    11
CTC2_L_00604010-04
1 40848U 26808IJ  26037.47799769  .00000000  00000+0  00000-0 0  9993
2 40848  50.0000 270.0000 0000000   0.0000 216.0000  5.61059952    12
CTC2_L_00604010-05
1 40849U 25706VJ  26037.47799769  .00000000  00000+0  00000-0 0  9990
2 40849  50.0000 270.0000 0000000   0.0000 252.0000  5.61059952    13
CTC2_L_00604010-06
1 40850U 24664QC  26037.47799769  .00000000  00000+0  00000-0 0  9994
2 40850  50.0000 270.0000 0000000   0.0000 288.0000  5.61059952    14
CTC2_L_00604010-07
1 40851U 26925ZQ  26037.47799769  .00000000  00000+0  00000-0 0  9997
2 40851  50.0000 270.0000 0000000   0.0000 324.0000  5.61059952    16
CTC2_L_00604010-08
1 40852U 24522IX  26037.47799769  .00000000  00000+0  00000-0 0  9999
2 40852  50.0000 270.0000 0000000   0.0000   0.0000  5.61059952    18
CTC2_L_00604010-09
1 40853U 26083QV  26037.47799769  .00000000  00000+0  00000-0 0  9994
2 40853  50.0000 270.0000 0000000   0.0000  36.0000  5.61059952    18
CTC2_L_00604010-10
1 40854U 26899VW  26037.47799769  .00000000  00000+0  00000-0 0  9990
2 40854  50.0000 270.0000 0000000   0.0000  72.0000  5.61059952    19
CTC2_L_00604011-01
1 40855U 23082MO  26037.47799769  .00000000  00000+0  00000-0 0  9992
2 40855  50.0000 300.0000 0000000   0.0000 120.0000  5.61059952    18
CTC2_L_00604011-02
1 40856U 23218HE  26037.47799769  .00000000  00000+0  00000-0 0  9994
2 40856  50.0000 300.0000 0000000   0.0000 156.0000  5.61059952    18
CTC2_L_00604011-03
1 40857U 25412OV  26037.47799769  .00000000  00000+0  00000-0 0  9993
2 40857  50.0000 300.0000 0000000   0.0000 192.0000  5.61059952    19
CTC2_L_00604011-04
1 40858U 26190TS  26037.47799769  .00000000  00000+0  00000-0 0  9998
2 40858  50.0000 300.0000 0000000   0.0000 228.0000  5.61059952    10
CTC2_L_00604011-05
1 40859U 25118TL  26037.47799769  .00000000  00000+0  00000-0 0  9998
2 40859  50.0000 300.0000 0000000   0.0000 264.0000  5.61059952    11
CTC2_L_00604011-06
1 40860U 23943BK  26037.47799769  .00000000  00000+0  00000-0 0  9994
2 40860  50.0000 300.0000 0000000   0.0000 300.0000  5.61059952    14
CTC2_L_00604011-07
1 40861U 25920ZF  26037.47799769  .00000000  00000+0  00000-0 0  9992
2 40861  50.0000 300.0000 0000000   0.0000 336.0000  5.61059952    14
CTC2_L_00604011-08
1 40862U 26227DI  26037.47799769  .00000000  00000+0  00000-0 0  9994
2 40862  50.0000 300.0000 0000000   0.0000  12.0000  5.61059952    16
CTC2_L_00604011-09
1 40863U 24482OI  26037.47799769  .00000000  00000+0  00000-0 0  9996
2 40863  50.0000 300.0000 0000000   0.0000  48.0000  5.61059952    16
CTC2_L_00604011-10
1 40864U 25491LG  26037.47799769  .00000000  00000+0  00000-0 0  9998
2 40864  50.0000 300.0000 0000000   0.0000  84.0000  5.61059952    17
CTC2_L_00604012-01
1 40865U 25743YN  26037.47799769  .00000000  00000+0  00000-0 0  9999
2 40865  50.0000 330.0000 0000000   0.0000 132.0000  5.61059952    15
CTC2_L_00604012-02
1 40866U 22854ZY  26037.47799769  .00000000  00000+0  00000-0 0  9990
2 40866  50.0000 330.0000 0000000   0.0000 168.0000  5.61059952    15
CTC2_L_00604012-03
1 40867U 25581A   26037.47799769  .00000000  00000+0  00000-0 0  9991
2 40867  50.0000 330.0000 0000000   0.0000 204.0000  5.61059952    17
CTC2_L_00604012-04
1 40868U 22517DZ  26037.47799769  .00000000  00000+0  00000-0 0  9998
2 40868  50.0000 330.0000 0000000   0.0000 240.0000  5.61059952    18
CTC2_L_00604012-05
1 40869U 24404JU  26037.47799769  .00000000  00000+0  00000-0 0  9996
2 40869  50.0000 330.0000 0000000   0.0000 276.0000  5.61059952    18
CTC2_L_00604012-06
1 40870U 26946KA  26037.47799769  .00000000  00000+0  00000-0 0  9991
2 40870  50.0000 330.0000 0000000   0.0000 312.0000  5.61059952    11
CTC2_L_00604012-07
1 40871U 25209CK  26037.47799769  .00000000  00000+0  00000-0 0  9993
2 40871  50.0000 330.0000 0000000   0.0000 348.0000  5.61059952    11
CTC2_L_00604012-08
1 40872U 23336MZ  26037.47799769  .00000000  00000+0  00000-0 0  9993
2 40872  50.0000 330.0000 0000000   0.0000  24.0000  5.61059952    13
CTC2_L_00604012-09
1 40873U 24371K   26037.47799769  .00000000  00000+0  00000-0 0  9994
2 40873  50.0000 330.0000 0000000   0.0000  60.0000  5.61059952    14
CTC2_L_00604012-10
1 40874U 24664HP  26037.47799769  .00000000  00000+0  00000-0 0  9990
2 40874  50.0000 330.0000 0000000   0.0000  96.0000  5.61059952    14
